full_name,epoch_mjd,a,e,i,om,w,ma,per_y
"       (2000 PG30)",57400,44.96665887925655,.1043491820132584,4.641135719602231,130.2006522451753,298.9437151688072,263.9056695178175,301.53944550001
"       (2000 PH30)",57400,76.19793701241109,.4972772082979383,8.067684121441456,127.2459960480926,241.709503063809,346.5958717660153,665.155248571137
"       (2000 PL30)",57400,41.90832970266612,.244523165623485,5.870304515738728,326.0615176360416,140.1275183517509,250.5524487549231,271.305582564843
"       (2000 PM30)",57400,43.84097592592438,.06130115219005487,2.285653876753042,129.8250345342459,61.95487654661405,139.0867635970793,290.287624947
"       (2000 PN30)",57400,44.64170911709088,.1021504185467875,1.517666035043696,15.80123393124485,273.2247283595028,41.4739122854858,298.276763606243
"       (2000 PQ30)",57400,41.57353289540473,.07233813693900545,.7608713177751355,47.2974104229919,177.0779177411813,107.5808144453518,268.0609797149
"       (2000 PR30)",51764,42.32524133740903,.07458869239707437,.7050716415346527,315.9392487329246,347.7551085720727,.01874253213318349,275.36413014465
"       (2000 PS30)",51764,64.45572508619414,.4572871301629369,2.772989655086876,72.94385570173482,243.4890319373212,.007745222953866497,517.488198164302
"       (2000 QB226)",51786,45.64140551978468,5.152185703444126E-5,3.536987470867603,6.004684654424334,146.4569546455761,185.2822897882256,308.351962787983
"       (2000 QC226)",57400,43.91972802267307,.04973219747407711,2.661193792685637,99.7616936618199,202.9923085399031,51.01015323138466,291.070147068288
"       (2000 QD226)",51786,41.16859412390521,4.890001057181884E-5,2.249979204773548,334.6718479092414,178.0658092380658,185.7725421372168,264.154039806459
"       (2000 QE226)",57400,43.82080854749819,.08409570450266997,1.193435956948389,118.5795574289207,357.3435127289055,248.524279107718,290.087344264054
"       (2000 QF226)",51786,46.49637301467126,5.206258775024567E-5,2.253284901117524,41.00056338731118,111.5919872887178,185.3316834356522,317.056614069269
"       (2000 QG226)",51784,39.40528652980979,.1253856765539394,1.986079931917025,132.4066580004136,107.4133529412071,84.01778881853789,247.36596040659
"       (2000 QH226)",51783,39.62163579837382,.1644463445865592,2.547248777518438,352.2721806110844,346.1983967901122,359.9868004153178,249.40594690728
"       (2000 QJ226)",51786,39.39157220295318,.1138507156475186,9.535708103839998,153.5490687967693,106.5838160412226,65.84232976596164,247.23683449186
"       (2000 QK226)",51783,66.99108714436784,.4442147469711499,24.93326925734984,158.1831842676567,180.4743452007883,359.9941745348121,548.319562743768
"       (2000 QL226)",51786,39.27465182878351,.2135899190774561,2.197104971798568,168.7687484227064,78.35711622429405,67.22343206837515,246.136895057646
"       (2000 QA243)",51782,43.26909044614685,1.608553105345024E-5,1.632798471027459,234.7373788553883,284.0666608608634,192.1778247199316,284.626184728414
"       (2000 QL251)",57400,47.52349542544215,.2129840124832063,3.67890719329593,223.2793717342876,98.519085255,34.91051240614381,327.620271975889
"       (2000 QN251)",57400,42.00615382304646,.1199908610778946,.3427613548552186,42.70849536636579,317.2583793891046,16.3401214703127,272.256075412812
"       (2000 QJ252)",51762,43.2365251944986,.1234191451938997,11.64336405743518,344.3250520332177,351.6861699808736,.01630287117959322,284.304921477245
"       (2000 QK252)",51761,45.14644701977586,.1965432756987933,7.779769569705254,141.3574353402575,347.4998888682701,180.0415386906943,303.34969906519
"       (2000 QL252)",51761,39.65880995959981,.05689475144364229,25.27372543546818,161.9829432588189,173.1594898589343,.01858555564410164,249.757029000736
"       (2000 QN252)",51761,36.5071098355462,8.419707853461986E-6,1.532333164029651,263.8430977946947,238.126507928642,176.6858667490094,220.584189512034
"       (2000 QO252)",51760,45.55573770000002,.1464716000000003,13.09715,327.54748,9.126220000000044,.01576999999996493,307.484216471132
"       (2000 SB331)",51811,46.3793306490956,4.948144192395957E-5,6.257307438009846,82.07377536499911,59.36334648406855,277.4142382220523,315.860208064237
"       (2000 SC331)",51811,46.48028540085092,4.970571929165397E-5,8.826598748960235,223.1169150336261,277.4823234497464,279.0898004443611,316.892077263344
"       (2000 SD331)",51811,43.68866209247675,4.822948757924184E-5,2.620451574253178,124.7799147735207,16.34687809574945,278.0116660695268,288.776148710634
"       (2000 SE331)",51811,43.52565504638412,4.822320935824513E-5,5.20685868733207,216.5487437173655,284.2643818899043,278.6900233816723,287.161475387461
"       (2000 SF331)",51832,44.01967965796774,3.910128543710143E-5,4.085979905632508,91.69402744310881,225.641362486417,102.1503117917669,292.064329563372
"       (2000 SG331)",51811,44.15805198501864,4.87320149593605E-5,2.36247557517417,125.9228965946136,13.95033254031403,280.6330382276266,293.442532353627
"       (2000 SH331)",51811,44.75658114639641,4.862611880170688E-5,2.894815028188208,122.3362913810081,19.52775125868002,276.4698947822272,299.428792398547
"       (2000 SJ331)",51811,41.42225137356996,4.700988260088462E-5,2.515749712653625,113.5906711619236,28.18555472543014,276.6840231921289,266.599144887011
"       (2000 SK331)",52155,45.48480905757712,.1335532900143307,2.788499519838634,105.479944928285,62.41634566385321,268.6778899333607,306.766383291056
"       (2000 SL331)",51811,41.83119112111529,4.73497231720729E-5,2.641705838118641,146.2311310860375,354.670477346729,278.503822568657,270.556859292293
"       (2000 SM331)",51811,57.35891838674458,.4368849036878195,12.00690635056939,72.31283840752357,346.2848608590988,359.9993948711625,434.419820862246
"       (2000 SO331)",51811,43.16269736964739,.0709514022859169,2.270816860973558,172.7316679847242,247.765432968758,359.9695310275976,283.57704205645
"       (2000 SP331)",51811,43.01289918365124,.1033701327319682,2.94496986063234,125.7234656774249,293.7574458757069,359.9814293496029,282.102072310535
"       (2000 SQ331)",51811,69.80829661719112,.7067318456409806,5.436712368000322,86.00378701266062,332.5426850901021,.0006482628879673545,583.268823899073
"       (2000 SR331)",57400,55.62203587371896,.4396866468033619,4.25745852627022,194.7030385537378,239.4856118302619,8.128671416928343,414.837992093352
"       (2000 SS331)",51811,63.68439366621489,.5213687078685235,2.983976969716421,146.7233731848177,272.809766607691,359.9999057291649,508.22699542676
"       (2000 ST331)",52155,42.47179762857771,.1160781210208904,3.381346621745692,102.7504153204587,324.014915844833,354.2835333342896,276.795590152133
"       (2000 SU331)",51811,59.86087961309737,.473522286737725,3.498915025309077,98.17729745159703,319.6543463236688,359.9996092755297,463.151253259136
"       (2000 SW370)",51811,43.80050960315337,.08537198592214161,5.641555510955914,134.0544441879094,183.5883250300717,.005825089879071172,289.885803543702
"       (2000 SX370)",51811,45.03927139842963,8.511306911162418E-5,18.37936280195899,300.8221696856243,194.1157815232749,169.1830291732439,302.27013273169
"       (2000 SY370)",57400,43.5650113085165,.04942792855346759,1.828835127546349,270.2610249432467,281.9931210733978,125.693820999655,287.551044136752
"       (2000 WV12)",57400,43.4889865382903,.04052528662930568,2.22705229125154,116.0197012055017,140.8708341295418,176.7930404240311,286.798669882115
"       (2000 WW12)",52030,54.03893034844818,.4295381620225214,2.493195742815212,161.6507901427444,328.3144343851716,328.7405024452201,397.254035995903
"       (2000 WX12)",51881,43.77168458612169,.1375501946831876,11.8127564630871,70.48648434649358,345.8421667133592,.02938564988743106,289.599690834428
"       (2000 WT169)",57400,44.95401701609639,.0082360671751172,1.743284271327142,110.5046192944097,232.6131122253997,102.247124819494,301.412292875265
"       (2000 WL183)",57400,43.56794380881315,.06477779342849702,4.296901969756356,93.67809359459815,197.873442495717,145.4543586841615,287.580078596532
"       (2000 WM183)",57400,44.96326700566649,.1152960374008535,7.445110521886404,81.23786717652577,147.8859549044464,216.5020141363929,301.505328075474
"       (2000 WN183)",57400,44.82424336146898,.1211110368718772,4.036211542321915,96.71924191422218,65.77660544417009,293.5535712651811,300.108055763404
"       (2000 WO183)",57400,43.84550299548982,.05897556647703307,2.439821081684134,120.5103636118334,269.5164552131861,49.36596767476078,290.332589258435
"       (2000 YV1)",57400,43.87444826547396,.03559257199766822,.7961687026743363,190.0164582837541,17.53966125237488,227.6276920685609,290.620137858208
"       (2000 YW1)",51895,42.91876169039251,8.124590234996729E-5,1.154637143657694,87.21279483599419,72.64317660774311,255.095093505402,281.176471610919
"       (2000 YX1)",57400,45.57280357853761,.07112063164335834,4.549939642670683,65.12349101179817,335.4968070587053,30.40888050796563,307.657015112057
"       (2000 YY1)",57400,63.98008901981888,.5352322379715165,7.874859352482856,209.7644432665446,292.7127638239252,341.0765854547273,511.770752243136
"       (2000 YZ1)",52047,44.82961758998255,.1301564376598559,5.52444738365504,95.82637572579995,29.47193288939768,304.3470175483553,300.162029823819
"       (2000 YA2)",57400,44.07068836248013,.05824675668616669,1.864643316355379,147.2020415496274,166.7275623016373,112.0083472542144,292.572129875322
"       (2000 YB2)",57400,38.75717634005225,.02752171345226882,3.818704976715143,135.6598992071983,204.5069446488068,95.93514441305028,241.288373376281
"       (2000 YD2)",51896,42.93551822029954,.1032793102332114,21.51871403160687,65.31625802509524,349.7759087245019,359.9662209527001,281.341154896808
"       (2000 YE2)",57400,48.0482500030184,.2068508128158649,3.830731501068043,224.7078760825971,236.7396319767543,346.6917388598036,333.061600060848
"       (2000 YF2)",57400,45.60935963399419,.07744227130782301,2.007198674299183,81.29204165581045,95.69983685377379,265.6006838076821,308.02726823787
